CCSDS_OMM_VERS,COMMENT,CREATION_DATE,ORIGINATOR,OBJECT_NAME,OBJECT_ID,CENTER_NAME,REF_FRAME,TIME_SYSTEM,MEAN_ELEMENT_THEORY,EPOCH,MEAN_MOTION,ECCENTRICITY,INCLINATION,RA_OF_ASC_NODE,ARG_OF_PERICENTER,MEAN_ANOMALY,EPHEMERIS_TYPE,CLASSIFICATION_TYPE,NORAD_CAT_ID,ELEMENT_SET_NO,REV_AT_EPOCH,BSTAR,MEAN_MOTION_DOT,MEAN_MOTION_DDOT,SEMIMAJOR_AXIS,PERIOD,APOAPSIS,PERIAPSIS,OBJECT_TYPE,RCS_SIZE,COUNTRY_CODE,LAUNCH_DATE,SITE,DECAY_DATE,FILE,GP_ID,TLE_LINE0,TLE_LINE1,TLE_LINE2
"2.0","GENERATED VIA SPACE-TRACK.ORG API","2020-08-27T04:36:14","18 SPCS","IRIDIUM 176","2019-002B","EARTH","TEME","UTC","SGP4","2020-08-26T20:07:17.340096","14.72249332","0.00022640","86.6162","159.7439","85.9553","274.1923","0","U","43923","999","8728","0.00001226400000","0.00000102","0.0000000000000","7032.033","97.809","655.490","652.306","PAYLOAD","LARGE","US","2019-01-11","AFWTR","","2809187","160207658","0 IRIDIUM 176","1 43923U 19002B   20239.83839514 +.00000102 +00000-0 +12264-4 0  9992","2 43923 086.6162 159.7439 0002264 085.9553 274.1923 14.72249332087289"
"2.0","GENERATED VIA SPACE-TRACK.ORG API","2020-08-26T22:16:09","18 SPCS","IRIDIUM 176","2019-002B","EARTH","TEME","UTC","SGP4","2020-08-26T18:29:24.919584","14.72249296","0.00022660","86.6162","159.7723","85.9250","274.2226","0","U","43923","999","8727","0.00001146100000","0.00000097","0.0000000000000","7032.033","97.809","655.492","652.305","PAYLOAD","LARGE","US","2019-01-11","AFWTR","","2809066","160186556","0 IRIDIUM 176","1 43923U 19002B   20239.77042731  .00000097  00000-0  11461-4 0  9993","2 43923  86.6162 159.7723 0002266  85.9250 274.2226 14.72249296 87276"
"2.0","GENERATED VIA SPACE-TRACK.ORG API","2020-08-26T21:10:42","18 SPCS","IRIDIUM 176","2019-002B","EARTH","TEME","UTC","SGP4","2020-08-26T07:04:17.954400","14.72249233","0.00022620","86.6162","159.9707","85.8518","274.2957","0","U","43923","999","8720","0.00001236300000","0.00000103","0.0000000000000","7032.033","97.809","655.489","652.308","PAYLOAD","LARGE","US","2019-01-11","AFWTR","","2809045","160185489","0 IRIDIUM 176","1 43923U 19002B   20239.29465225 +.00000103 +00000-0 +12363-4 0  9997","2 43923 086.6162 159.9707 0002262 085.8518 274.2957 14.72249233087207"
"2.0","GENERATED VIA SPACE-TRACK.ORG API","2020-08-26T14:56:10","18 SPCS","SL-18 DEB","1993-014BJ","EARTH","TEME","UTC","SGP4","2020-08-26T05:13:44.214240","14.81273307","0.00718690","75.7394","71.7284","45.7759","314.9297","0","U","35359","999","69327","0.00033712000000","0.00002729","0.0000000000000","7003.444","97.213","675.642","574.976","DEBRIS","SMALL","CIS","1993-03-25","PKMTR","","2808971","160163875","0 SL-18 DEB","1 35359U 93014BJ  20239.21787285  .00002729  00000-0  33712-3 0  9997","2 35359  75.7394  71.7284 0071869  45.7759 314.9297 14.81273307693277"
"2.0","GENERATED VIA SPACE-TRACK.ORG API","2020-08-26T03:38:10","18 SPCS","IRIDIUM 176","2019-002B","EARTH","TEME","UTC","SGP4","2020-08-25T19:39:10.989216","14.72249159","0.00022680","86.6162","160.1692","85.7476","274.4000","0","U","43923","999","8713","0.00001215600000","0.00000101","0.0000000000000","7032.034","97.809","655.493","652.304","PAYLOAD","LARGE","US","2019-01-11","AFWTR","","2808553","160152136","0 IRIDIUM 176","1 43923U 19002B   20238.81887719 +.00000101 +00000-0 +12156-4 0  9998","2 43923 086.6162 160.1692 0002268 085.7476 274.4000 14.72249159087132"
"2.0","GENERATED VIA SPACE-TRACK.ORG API","2020-08-25T22:26:10","18 SPCS","IRIDIUM 176","2019-002B","EARTH","TEME","UTC","SGP4","2020-08-25T18:01:18.565248","14.72249152","0.00022690","86.6162","160.1976","85.7563","274.3914","0","U","43923","999","8712","0.00001229000000","0.00000102","0.0000000000000","7032.034","97.809","655.494","652.303","PAYLOAD","LARGE","US","2019-01-11","AFWTR","","2808422","160132374","0 IRIDIUM 176","1 43923U 19002B   20238.75090932  .00000102  00000-0  12290-4 0  9994","2 43923  86.6162 160.1976 0002269  85.7563 274.3914 14.72249152 87120"
"2.0","GENERATED VIA SPACE-TRACK.ORG API","2020-08-25T17:47:59","18 SPCS","IRIDIUM 176","2019-002B","EARTH","TEME","UTC","SGP4","2020-08-25T06:36:11.594880","14.72249111","0.00022700","86.6162","160.3960","85.7082","274.4394","0","U","43923","999","8705","0.00001480800000","0.00000118","0.0000000000000","7032.034","97.809","655.495","652.302","PAYLOAD","LARGE","US","2019-01-11","AFWTR","","2808324","160129233","0 IRIDIUM 176","1 43923U 19002B   20238.27513420 +.00000118 +00000-0 +14808-4 0  9997","2 43923 086.6162 160.3960 0002270 085.7082 274.4394 14.72249111087053"
"2.0","GENERATED VIA SPACE-TRACK.ORG API","2020-08-25T05:18:38","18 SPCS","IRIDIUM 176","2019-002B","EARTH","TEME","UTC","SGP4","2020-08-24T20:48:57.049344","14.72249046","0.00022770","86.6161","160.5661","85.4971","274.6506","0","U","43923","999","8699","0.00001598000000","0.00000125","0.0000000000000","7032.034","97.809","655.500","652.298","PAYLOAD","LARGE","US","2019-01-11","AFWTR","","2807960","160080337","0 IRIDIUM 176","1 43923U 19002B   20237.86732696 +.00000125 +00000-0 +15980-4 0  9999","2 43923 086.6161 160.5661 0002277 085.4971 274.6506 14.72249046086999"
"2.0","GENERATED VIA SPACE-TRACK.ORG API","2020-08-24T19:45:39","18 SPCS","IRIDIUM 176","2019-002B","EARTH","TEME","UTC","SGP4","2020-08-24T12:39:34.926912","14.72248972","0.00022820","86.6161","160.7079","85.4665","274.6813","0","U","43923","999","8694","0.00001522000000","0.00000121","0.0000000000000","7032.034","97.809","655.504","652.294","PAYLOAD","LARGE","US","2019-01-11","AFWTR","","2807777","160036141","0 IRIDIUM 176","1 43923U 19002B   20237.52748758 +.00000121 +00000-0 +15220-4 0  9991","2 43923 086.6161 160.7079 0002282 085.4665 274.6813 14.72248972086943"
"2.0","GENERATED VIA SPACE-TRACK.ORG API","2020-08-24T14:26:09","18 SPCS","IRIDIUM 176","2019-002B","EARTH","TEME","UTC","SGP4","2020-08-24T07:45:57.650688","14.72248963","0.00022830","86.6161","160.7930","85.6193","274.5284","0","U","43923","999","8691","0.00001561000000","0.00000123","0.0000000000000","7032.034","97.809","655.505","652.294","PAYLOAD","LARGE","US","2019-01-11","AFWTR","","2807602","160013463","0 IRIDIUM 176","1 43923U 19002B   20237.32358392  .00000123  00000-0  15610-4 0  9995","2 43923  86.6161 160.7930 0002283  85.6193 274.5284 14.72248963 86916"
"2.0","GENERATED VIA SPACE-TRACK.ORG API","2020-08-24T19:45:39","18 SPCS","SL-18 DEB","1993-014BJ","EARTH","TEME","UTC","SGP4","2020-08-24T06:13:13.146816","14.81263118","0.00718910","75.7393","75.1907","50.6229","310.1295","0","U","35359","999","69232","0.00037686000000","0.00003053","0.0000000000000","7003.476","97.214","675.690","574.993","DEBRIS","SMALL","CIS","1993-03-25","PKMTR","","2807777","160031185","0 SL-18 DEB","1 35359U 93014BJ  20237.25917994 +.00003053 +00000-0 +37686-3 0  9996","2 35359 075.7393 075.1907 0071891 050.6229 310.1295 14.81263118692328"
"2.0","GENERATED VIA SPACE-TRACK.ORG API","2020-08-24T06:56:09","18 SPCS","SL-18 DEB","1993-014BJ","EARTH","TEME","UTC","SGP4","2020-08-23T23:44:10.822560","14.81261195","0.00718850","75.7393","75.6683","51.2852","309.4732","0","U","35359","999","69294","0.00035861000000","0.00002904","0.0000000000000","7003.482","97.214","675.692","575.003","DEBRIS","SMALL","CIS","1993-03-25","PKMTR","","2807529","160011994","0 SL-18 DEB","1 35359U 93014BJ  20236.98901415  .00002904  00000-0  35861-3 0  9993","2 35359  75.7393  75.6683 0071885  51.2852 309.4732 14.81261195692944"
"2.0","GENERATED VIA SPACE-TRACK.ORG API","2020-08-24T01:08:22","18 SPCS","IRIDIUM 176","2019-002B","EARTH","TEME","UTC","SGP4","2020-08-23T20:20:50.678592","14.72248404","0.00022460","86.6161","160.9914","85.0065","275.1408","0","U","43923","999","8684","0.00001532400000","0.00000121","0.0000000000000","7032.036","97.809","655.480","652.322","PAYLOAD","LARGE","US","2019-01-11","AFWTR","","2807374","160008746","0 IRIDIUM 176","1 43923U 19002B   20236.84780878 +.00000121 +00000-0 +15324-4 0  9999","2 43923 086.6161 160.9914 0002246 085.0065 275.1408 14.72248404086848"
"2.0","GENERATED VIA SPACE-TRACK.ORG API","2020-08-23T17:26:13","18 SPCS","IRIDIUM 176","2019-002B","EARTH","TEME","UTC","SGP4","2020-08-23T12:11:28.563072","14.72248561","0.00023160","86.6162","161.1330","84.8578","275.2904","0","U","43923","999","8679","0.00001554300000","0.00000123","0.0000000000000","7032.035","97.809","655.529","652.272","PAYLOAD","LARGE","US","2019-01-11","AFWTR","","2807181","159963043","0 IRIDIUM 176","1 43923U 19002B   20236.50796948 +.00000123 +00000-0 +15543-4 0  9992","2 43923 086.6162 161.1330 0002316 084.8578 275.2904 14.72248561086798"
"2.0","GENERATED VIA SPACE-TRACK.ORG API","2020-08-23T14:36:09","18 SPCS","IRIDIUM 176","2019-002B","EARTH","TEME","UTC","SGP4","2020-08-23T07:17:51.396576","14.72242777","0.00026150","86.6167","161.2189","82.7948","277.3567","0","U","43923","999","8676","0.00001637200000","0.00000128","0.0000000000000","7032.054","97.809","655.758","652.080","PAYLOAD","LARGE","US","2019-01-11","AFWTR","","2807025","159939682","0 IRIDIUM 176","1 43923U 19002B   20236.30406709  .00000128  00000-0  16372-4 0  9999","2 43923  86.6167 161.2189 0002615  82.7948 277.3567 14.72242777 86764"
"2.0","GENERATED VIA SPACE-TRACK.ORG API","2020-08-23T17:26:13","18 SPCS","SL-18 DEB","1993-014BJ","EARTH","TEME","UTC","SGP4","2020-08-23T05:54:19.298880","14.81257033","0.00718840","75.7391","76.9816","53.1094","307.6651","0","U","35359","999","69217","0.00034967000000","0.00002831","0.0000000000000","7003.496","97.214","675.705","575.017","DEBRIS","SMALL","CIS","1993-03-25","PKMTR","","2807181","159958218","0 SL-18 DEB","1 35359U 93014BJ  20236.24605670 +.00002831 +00000-0 +34967-3 0  9991","2 35359 075.7391 076.9816 0071884 053.1094 307.6651 14.81257033692173"
